MALLIGYONG-1            
1 58400U 23179A   24275.85403555  .00011208  00000+0  50766-3 0  9992
2 58400  97.3858 160.8478 0010220  65.8355 294.3948 15.20988304 47943
